[{"OBJECT_NAME":"STARLINK-1407","OBJECT_ID":"2020-035AY","EPOCH":"2026-03-09T21:23:00.001536","MEAN_MOTION":15.59976169,"ECCENTRICITY":0.00103838,"INCLINATION":53.0348,"RA_OF_ASC_NODE":314.7811,"ARG_OF_PERICENTER":106.6316,"MEAN_ANOMALY":253.5837,"EPHEMERIS_TYPE":0,"CLASSIFICATION_TYPE":"U","NORAD_CAT_ID":45703,"ELEMENT_SET_NO":999,"REV_AT_EPOCH":32032,"BSTAR":0.0017348745,"MEAN_MOTION_DOT":0.00145077,"MEAN_MOTION_DDOT":0},{"OBJECT_NAME":"JILIN-1 GAOFEN 3D29","OBJECT_ID":"2022-048D","EPOCH":"2026-03-09T22:32:03.430176","MEAN_MOTION":15.58876376,"ECCENTRICITY":0.00011818,"INCLINATION":97.5625,"RA_OF_ASC_NODE":175.7079,"ARG_OF_PERICENTER":38.4318,"MEAN_ANOMALY":321.7021,"EPHEMERIS_TYPE":0,"CLASSIFICATION_TYPE":"U","NORAD_CAT_ID":52446,"ELEMENT_SET_NO":999,"REV_AT_EPOCH":21396,"BSTAR":0.0009895571,"MEAN_MOTION_DOT":0.000771,"MEAN_MOTION_DDOT":0}]
